[
    {
        "Altitude(m)": 703690.9459486287,
        "Argument of Periapsis(deg)": 0.005695060593313534,
        "Eccentricity": 0.0,
        "Inclination(deg)": 45.0,
        "Latitude(deg)": 26.20390594448403,
        "Longitude(deg)": 138.93610812054277,
        "Mean Anomaly(deg)": 38.49390832374039,
        "RAAN(deg)": 209.9946240292709,
        "Satellite Name": "Constellation 1 926",
        "Satellite Number": 926,
        "Semi-Major Axis(m)": 7083131.272910544,
        "Time(s)": 95
    },
    {
        "Altitude(m)": 703696.0318871746,
        "Argument of Periapsis(deg)": 0.00575500859955894,
        "Eccentricity": 0.0,
        "Inclination(deg)": 45.0,
        "Latitude(deg)": 26.241523621258942,
        "Longitude(deg)": 138.985204668457,
        "Mean Anomaly(deg)": 38.55460946399033,
        "RAAN(deg)": 209.99456744010536,
        "Satellite Name": "Constellation 1 926",
        "Satellite Number": 926,
        "Semi-Major Axis(m)": 7083131.272910544,
        "Time(s)": 96
    },
    {
        "Altitude(m)": 703701.1261400688,
        "Argument of Periapsis(deg)": 0.005814956605804345,
        "Eccentricity": 0.0,
        "Inclination(deg)": 45.0,
        "Latitude(deg)": 26.279121400146174,
        "Longitude(deg)": 139.03433562765807,
        "Mean Anomaly(deg)": 38.61531060424022,
        "RAAN(deg)": 209.9945108509398,
        "Satellite Name": "Constellation 1 926",
        "Satellite Number": 926,
        "Semi-Major Axis(m)": 7083131.272910544,
        "Time(s)": 97
    },
    {
        "Altitude(m)": 703706.2286694747,
        "Argument of Periapsis(deg)": 0.00587490461204975,
        "Eccentricity": 0.0,
        "Inclination(deg)": 45.0,
        "Latitude(deg)": 26.316699235914463,
        "Longitude(deg)": 139.08350089067542,
        "Mean Anomaly(deg)": 38.67601174449008,
        "RAAN(deg)": 209.99445426177422,
        "Satellite Name": "Constellation 1 926",
        "Satellite Number": 926,
        "Semi-Major Axis(m)": 7083131.272910544,
        "Time(s)": 98
    },
    {
        "Altitude(m)": 703711.3394375306,
        "Argument of Periapsis(deg)": 0.005934852618295156,
        "Eccentricity": 0.0,
        "Inclination(deg)": 45.0,
        "Latitude(deg)": 26.35425708326621,
        "Longitude(deg)": 139.13270051813035,
        "Mean Anomaly(deg)": 38.73671288473997,
        "RAAN(deg)": 209.99439767260867,
        "Satellite Name": "Constellation 1 926",
        "Satellite Number": 926,
        "Semi-Major Axis(m)": 7083131.272910544,
        "Time(s)": 99
    },
    {
        "Altitude(m)": 703716.4584063491,
        "Argument of Periapsis(deg)": 0.005994800624540561,
        "Eccentricity": 0.0,
        "Inclination(deg)": 45.0,
        "Latitude(deg)": 26.391794896837595,
        "Longitude(deg)": 139.18193457063822,
        "Mean Anomaly(deg)": 38.79741402498993,
        "RAAN(deg)": 209.99434108344306,
        "Satellite Name": "Constellation 1 926",
        "Satellite Number": 926,
        "Semi-Major Axis(m)": 7083131.272910544,
        "Time(s)": 100
    },
    {
        "Altitude(m)": 703721.5855380233,
        "Argument of Periapsis(deg)": 0.006054748630785968,
        "Eccentricity": 0.0,
        "Inclination(deg)": 45.0,
        "Latitude(deg)": 26.429312631198286,
        "Longitude(deg)": 139.2312031088078,
        "Mean Anomaly(deg)": 38.85811516523982,
        "RAAN(deg)": 209.9942844942775,
        "Satellite Name": "Constellation 1 926",
        "Satellite Number": 926,
        "Semi-Major Axis(m)": 7083131.272910544,
        "Time(s)": 101
    },
    {
        "Altitude(m)": 703726.7207946175,
        "Argument of Periapsis(deg)": 0.006114696637031373,
        "Eccentricity": 0.0,
        "Inclination(deg)": 45.0,
        "Latitude(deg)": 26.466810240851668,
        "Longitude(deg)": 139.28050619324137,
        "Mean Anomaly(deg)": 38.9188163054897,
        "RAAN(deg)": 209.99422790511193,
        "Satellite Name": "Constellation 1 926",
        "Satellite Number": 926,
        "Semi-Major Axis(m)": 7083131.272910544,
        "Time(s)": 102
    },
    {
        "Altitude(m)": 703731.8641381764,
        "Argument of Periapsis(deg)": 0.006174644643276778,
        "Eccentricity": 0.0,
        "Inclination(deg)": 45.0,
        "Latitude(deg)": 26.504287680234512,
        "Longitude(deg)": 139.3298438845341,
        "Mean Anomaly(deg)": 38.97951744573962,
        "RAAN(deg)": 209.99417131594637,
        "Satellite Name": "Constellation 1 926",
        "Satellite Number": 926,
        "Semi-Major Axis(m)": 7083131.272910544,
        "Time(s)": 103
    },
    {
        "Altitude(m)": 703737.0155307169,
        "Argument of Periapsis(deg)": 0.006234592649522184,
        "Eccentricity": 0.0,
        "Inclination(deg)": 45.0,
        "Latitude(deg)": 26.54174490371727,
        "Longitude(deg)": 139.37921607517669,
        "Mean Anomaly(deg)": 39.0402185859895,
        "RAAN(deg)": 209.99411472678082,
        "Satellite Name": "Constellation 1 926",
        "Satellite Number": 926,
        "Semi-Major Axis(m)": 7083131.272910544,
        "Time(s)": 104
    },
    {
        "Altitude(m)": 703742.1749342367,
        "Argument of Periapsis(deg)": 0.00629454065576759,
        "Eccentricity": 0.0,
        "Inclination(deg)": 45.0,
        "Latitude(deg)": 26.57918186560298,
        "Longitude(deg)": 139.4286231619432,
        "Mean Anomaly(deg)": 39.10091972623939,
        "RAAN(deg)": 209.9940581376152,
        "Satellite Name": "Constellation 1 926",
        "Satellite Number": 926,
        "Semi-Major Axis(m)": 7083131.272910544,
        "Time(s)": 105
    },
    {
        "Altitude(m)": 703747.3423107115,
        "Argument of Periapsis(deg)": 0.006354488662012995,
        "Eccentricity": 0.0,
        "Inclination(deg)": 45.0,
        "Latitude(deg)": 26.61659852012855,
        "Longitude(deg)": 139.47806503730814,
        "Mean Anomaly(deg)": 39.1616208664893,
        "RAAN(deg)": 209.99400154844966,
        "Satellite Name": "Constellation 1 926",
        "Satellite Number": 926,
        "Semi-Major Axis(m)": 7083131.272910544,
        "Time(s)": 106
    },
    {
        "Altitude(m)": 703752.5176220882,
        "Argument of Periapsis(deg)": 0.006414436668258401,
        "Eccentricity": 0.0,
        "Inclination(deg)": 45.0,
        "Latitude(deg)": 26.65399482146378,
        "Longitude(deg)": 139.52754176183456,
        "Mean Anomaly(deg)": 39.22232200673924,
        "RAAN(deg)": 209.99394495928408,
        "Satellite Name": "Constellation 1 926",
        "Satellite Number": 926,
        "Semi-Major Axis(m)": 7083131.272910544,
        "Time(s)": 107
    },
    {
        "Altitude(m)": 703757.7008302946,
        "Argument of Periapsis(deg)": 0.0064743846745038075,
        "Eccentricity": 0.0,
        "Inclination(deg)": 45.0,
        "Latitude(deg)": 26.691370723711486,
        "Longitude(deg)": 139.57705339607642,
        "Mean Anomaly(deg)": 39.283023146989095,
        "RAAN(deg)": 209.99388837011853,
        "Satellite Name": "Constellation 1 926",
        "Satellite Number": 926,
        "Semi-Major Axis(m)": 7083131.272910544,
        "Time(s)": 108
    },
    {
        "Altitude(m)": 703762.8918972414,
        "Argument of Periapsis(deg)": 0.0065343326807492125,
        "Eccentricity": 0.0,
        "Inclination(deg)": 45.0,
        "Latitude(deg)": 26.72872618090747,
        "Longitude(deg)": 139.62660000057835,
        "Mean Anomaly(deg)": 39.343724287238985,
        "RAAN(deg)": 209.99383178095292,
        "Satellite Name": "Constellation 1 926",
        "Satellite Number": 926,
        "Semi-Major Axis(m)": 7083131.272910544,
        "Time(s)": 109
    },
    {
        "Altitude(m)": 703768.0907848079,
        "Argument of Periapsis(deg)": 0.0065942806869946176,
        "Eccentricity": 0.0,
        "Inclination(deg)": 45.0,
        "Latitude(deg)": 26.76606114702034,
        "Longitude(deg)": 139.67618163587508,
        "Mean Anomaly(deg)": 39.404425427488924,
        "RAAN(deg)": 209.99377519178736,
        "Satellite Name": "Constellation 1 926",
        "Satellite Number": 926,
        "Semi-Major Axis(m)": 7083131.272910544,
        "Time(s)": 110
    },
    {
        "Altitude(m)": 703773.2974548574,
        "Argument of Periapsis(deg)": 0.006654228693240024,
        "Eccentricity": 0.0,
        "Inclination(deg)": 45.0,
        "Latitude(deg)": 26.803375575951723,
        "Longitude(deg)": 139.72579819439403,
        "Mean Anomaly(deg)": 39.465126567738785,
        "RAAN(deg)": 209.99371860262178,
        "Satellite Name": "Constellation 1 926",
        "Satellite Number": 926,
        "Semi-Major Axis(m)": 7083131.272910544,
        "Time(s)": 111
    },
    {
        "Altitude(m)": 703778.5118692261,
        "Argument of Periapsis(deg)": 0.006714176699485429,
        "Eccentricity": 0.0,
        "Inclination(deg)": 45.0,
        "Latitude(deg)": 26.840669421535274,
        "Longitude(deg)": 139.77545007284337,
        "Mean Anomaly(deg)": 39.525827707988675,
        "RAAN(deg)": 209.99366201345623,
        "Satellite Name": "Constellation 1 926",
        "Satellite Number": 926,
        "Semi-Major Axis(m)": 7083131.272910544,
        "Time(s)": 112
    },
    {
        "Altitude(m)": 703783.7339897353,
        "Argument of Periapsis(deg)": 0.006774124705730835,
        "Eccentricity": 0.0,
        "Inclination(deg)": 45.0,
        "Latitude(deg)": 26.877942637537892,
        "Longitude(deg)": 139.8251371636289,
        "Mean Anomaly(deg)": 39.58652884823856,
        "RAAN(deg)": 209.99360542429068,
        "Satellite Name": "Constellation 1 926",
        "Satellite Number": 926,
        "Semi-Major Axis(m)": 7083131.272910544,
        "Time(s)": 113
    }
]